$$SOE
2461295.500000000, A.D. 2026-Sep-12 00:00:00.0000, -3.478973260888447E+08, 1.193634388187066E+07, -2.122792268619566E+06,
2461302.500000000, A.D. 2026-Sep-19 00:00:00.0000, -3.480115786800399E+08, 6.026677893260098E+04, -2.906834167937651E+06,
2461309.500000000, A.D. 2026-Sep-26 00:00:00.0000, -3.477250937355086E+08, -1.181581572792025E+07, -3.687526604292465E+06,
2461316.500000000, A.D. 2026-Oct-03 00:00:00.0000, -3.470379312352206E+08, -2.367822425019003E+07, -4.463967596077541E+06,
2461323.500000000, A.D. 2026-Oct-10 00:00:00.0000, -3.459506352956591E+08, -3.551327829802875E+07, -5.235259172034133E+06,
2461330.500000000, A.D. 2026-Oct-17 00:00:00.0000, -3.444642346542658E+08, -4.730731432504761E+07, -6.000508563527955E+06,
2461337.500000000, A.D. 2026-Oct-24 00:00:00.0000, -3.425802424157740E+08, -5.904670391812798E+07, -6.758829401446771E+06,
2461344.500000000, A.D. 2026-Oct-31 00:00:00.0000, -3.403006549570545E+08, -7.071787216349787E+07, -7.509342929694064E+06,
2461351.500000000, A.D. 2026-Nov-07 00:00:00.0000, -3.376279496488612E+08, -8.230731607900777E+07, -8.251179257731963E+06,
2461358.500000000, A.D. 2026-Nov-14 00:00:00.0000, -3.345650811923810E+08, -9.380162218870896E+07, -8.983478595380105E+06,
2461365.500000000, A.D. 2026-Nov-21 00:00:00.0000, -3.311154783822930E+08, -1.051874825218769E+08, -9.705392245287769E+06,
2461372.500000000, A.D. 2026-Nov-28 00:00:00.0000, -3.272830422986491E+08, -1.164517120104864E+08, -1.041608350505864E+07,
2461379.500000000, A.D. 2026-Dec-05 00:00:00.0000, -3.230721423181782E+08, -1.275812679068417E+08, -1.111472886249831E+07,
2461386.500000000, A.D. 2026-Dec-12 00:00:00.0000, -3.184876097894720E+08, -1.385632680720444E+08, -1.180051924204916E+07,
2461393.500000000, A.D. 2026-Dec-19 00:00:00.0000, -3.135347312650671E+08, -1.493850080907500E+08, -1.247266112559830E+07,
2461400.500000000, A.D. 2026-Dec-26 00:00:00.0000, -3.082192414408833E+08, -1.600339780467694E+08, -1.313037760301536E+07,
2461407.500000000, A.D. 2027-Jan-02 00:00:00.0000, -3.025473155418759E+08, -1.704978791195561E+08, -1.377290939151975E+07,
2461414.500000000, A.D. 2027-Jan-09 00:00:00.0000, -2.965255610557759E+08, -1.807646399497567E+08, -1.439951583115421E+07,
2461421.500000000, A.D. 2027-Jan-16 00:00:00.0000, -2.901610087994567E+08, -1.908224327331482E+08, -1.500947585692546E+07,
2461428.500000000, A.D. 2027-Jan-23 00:00:00.0000, -2.834611032930858E+08, -2.006596890521987E+08, -1.560208895325510E+07,
2461435.500000000, A.D. 2027-Jan-30 00:00:00.0000, -2.764336922778977E+08, -2.102651154643358E+08, -1.617667611034605E+07,
2461442.500000000, A.D. 2027-Feb-06 00:00:00.0000, -2.690870149790652E+08, -2.196277084788252E+08, -1.673258079228625E+07,
2461449.500000000, A.D. 2027-Feb-13 00:00:00.0000, -2.614296896014023E+08, -2.287367676733131E+08, -1.726916977346779E+07,
2461456.500000000, A.D. 2027-Feb-20 00:00:00.0000, -2.534707024477040E+08, -2.375819077102453E+08, -1.778583368922362E+07,
2461463.500000000, A.D. 2027-Feb-27 00:00:00.0000, -2.452193972880071E+08, -2.461530724379040E+08, -1.828198768922518E+07,
2461470.500000000, A.D. 2027-Mar-06 00:00:00.0000, -2.366854619854992E+08, -2.544405491287658E+08, -1.875707231125838E+07,
2461477.500000000, A.D. 2027-Mar-13 00:00:00.0000, -2.278789140030794E+08, -2.624349807857713E+08, -1.921055425956491E+07,
2461484.500000000, A.D. 2027-Mar-20 00:00:00.0000, -2.188100859472668E+08, -2.701273773364885E+08, -1.964192705199149E+07,
2461491.500000000, A.D. 2027-Mar-27 00:00:00.0000, -2.094896109802033E+08, -2.775091262522299E+08, -2.005071159986515E+07,
2461498.500000000, A.D. 2027-Apr-03 00:00:00.0000, -1.999284079330004E+08, -2.845720026284050E+08, -2.043645674377611E+07,
2461505.500000000, A.D. 2027-Apr-10 00:00:00.0000, -1.901376660962645E+08, -2.913081786911505E+08, -2.079873974917130E+07,
2461512.500000000, A.D. 2027-Apr-17 00:00:00.0000, -1.801288297015920E+08, -2.977102327321702E+08, -2.113716676447368E+07,
2461519.500000000, A.D. 2027-Apr-24 00:00:00.0000, -1.699135820486011E+08, -3.037711575224904E+08, -2.145137325334497E+07,
2461526.500000000, A.D. 2027-May-01 00:00:00.0000, -1.595038290106030E+08, -3.094843681683050E+08, -2.174102442576508E+07,
2461533.500000000, A.D. 2027-May-08 00:00:00.0000, -1.489116816445780E+08, -3.148437086538724E+08, -2.200581563468701E+07,
2461540.500000000, A.D. 2027-May-15 00:00:00.0000, -1.381494394356345E+08, -3.198434561121706E+08, -2.224547252286997E+07,
2461547.500000000, A.D. 2027-May-22 00:00:00.0000, -1.272295757721065E+08, -3.244783254097850E+08, -2.245975098818229E+07,
2461554.500000000, A.D. 2027-May-29 00:00:00.0000, -1.161647223276495E+08, -3.287434755127810E+08, -2.264843739531468E+07,
2461561.500000000, A.D. 2027-Jun-05 00:00:00.0000, -1.049676514987138E+08, -3.326345145026922E+08, -2.281134885907742E+07,
2461568.500000000, A.D. 2027-Jun-12 00:00:00.0000, -9.365125893655738E+07, -3.361475028113582E+08, -2.294833337941732E+07,
2461575.500000000, A.D. 2027-Jun-19 00:00:00.0000, -8.222854653404464E+07, -3.392789556115679E+08, -2.305926987380479E+07,
2461582.500000000, A.D. 2027-Jun-26 00:00:00.0000, -7.071260561568432E+07, -3.420258446297517E+08, -2.314406815402934E+07,
2461589.500000000, A.D. 2027-Jul-03 00:00:00.0000, -5.911660022590134E+07, -3.443855993808014E+08, -2.320266885962339E+07,
2461596.500000000, A.D. 2027-Jul-10 00:00:00.0000, -4.745375050598914E+07, -3.463561078287143E+08, -2.323504335207286E+07,
2461603.500000000, A.D. 2027-Jul-17 00:00:00.0000, -3.573731615222942E+07, -3.479357165273595E+08, -2.324119357802248E+07,
2461610.500000000, A.D. 2027-Jul-24 00:00:00.0000, -2.398057982874690E+07, -3.491232303197700E+08, -2.322115192232838E+07,
2461617.500000000, A.D. 2027-Jul-31 00:00:00.0000, -1.219683015282149E+07, -3.499179113748071E+08, -2.317498107042362E+07,
2461624.500000000, A.D. 2027-Aug-07 00:00:00.0000, -3.993444806081560E+05, -3.503194764230046E+08, -2.310277376824622E+07,
2461631.500000000, A.D. 2027-Aug-14 00:00:00.0000, 1.139862618060575E+07, -3.503280924572993E+08, -2.300465229011767E+07,
2461638.500000000, A.D. 2027-Aug-21 00:00:00.0000, 2.318387072999931E+07, -3.499443742753261E+08, -2.288076794720577E+07,
2461645.500000000, A.D. 2027-Aug-28 00:00:00.0000, 3.494323341210499E+07, -3.491693826768489E+08, -2.273130085435306E+07,
2461652.500000000, A.D. 2027-Sep-04 00:00:00.0000, 4.666362993620038E+07, -3.480046208336961E+08, -2.255645964397794E+07,
2461659.500000000, A.D. 2027-Sep-11 00:00:00.0000, 5.833206286183525E+07, -3.464520295126749E+08, -2.235648105460589E+07,
2461666.500000000, A.D. 2027-Sep-18 00:00:00.0000, 6.993563636600186E+07, -3.445139818205796E+08, -2.213162946092051E+07,
2461673.500000000, A.D. 2027-Sep-25 00:00:00.0000, 8.146157060419340E+07, -3.421932775680385E+08, -2.188219637425004E+07,
2461680.500000000, A.D. 2027-Oct-02 00:00:00.0000, 9.289721572487320E+07, -3.394931372431924E+08, -2.160849991974062E+07,
2461687.500000000, A.D. 2027-Oct-09 00:00:00.0000, 1.042300655465725E+08, -3.364171956176618E+08, -2.131088429440288E+07,
2461694.500000000, A.D. 2027-Oct-16 00:00:00.0000, 1.154477709507136E+08, -3.329694950591456E+08, -2.098971921825601E+07,
2461701.500000000, A.D. 2027-Oct-23 00:00:00.0000, 1.265381532416695E+08, -3.291544785791891E+08, -2.064539940480833E+07,
2461708.500000000, A.D. 2027-Oct-30 00:00:00.0000, 1.374892178400006E+08, -3.249769820307255E+08, -2.027834403706259E+07,
2461715.500000000, A.D. 2027-Nov-06 00:00:00.0000, 1.482891671353808E+08, -3.204422243515173E+08, -1.988899605155222E+07,
2461722.500000000, A.D. 2027-Nov-13 00:00:00.0000, 1.589264105022688E+08, -3.155557979502025E+08, -1.947782121907863E+07,
2461729.500000000, A.D. 2027-Nov-20 00:00:00.0000, 1.693895743690863E+08, -3.103236614370680E+08, -1.904530746778244E+07,
2461736.500000000, A.D. 2027-Nov-27 00:00:00.0000, 1.796675139498787E+08, -3.047521317500466E+08, -1.859196435542484E+07,
2461743.500000000, A.D. 2027-Dec-04 00:00:00.0000, 1.897493246099029E+08, -2.988478747758030E+08, -1.811832243162604E+07,
2461750.500000000, A.D. 2027-Dec-11 00:00:00.0000, 1.996243523151989E+08, -2.926178954445962E+08, -1.762493251998845E+07,
2461757.500000000, A.D. 2027-Dec-18 00:00:00.0000, 2.092822034458219E+08, -2.860695276581509E+08, -1.711236497511370E+07,
2461764.500000000, A.D. 2027-Dec-25 00:00:00.0000, 2.187127541285655E+08, -2.792104240779172E+08, -1.658120893050115E+07,
2461771.500000000, A.D. 2028-Jan-01 00:00:00.0000, 2.279061591304865E+08, -2.720485457844495E+08, -1.603207154120493E+07,
$$EOE